NORAD_CAT_ID,OBJECT_NAME,OBJECT_TYPE,EPOCH,MEAN_MOTION,ECCENTRICITY,INCLINATION,RA_OF_ASC_NODE,ARG_OF_PERICENTER,MEAN_ANOMALY,BSTAR,MEAN_MOTION_DOT,MEAN_MOTION_DDOT,TLE_LINE0,TLE_LINE1,TLE_LINE2,SEMIMAJOR_AXIS,PERIOD,APOGEE,PERIGEE,DECAYED
56474.0,STARLINK-5524,PAYLOAD,2023-08-28 02:44:29,15.50544617,0.0004696,69.9987,298.5612,235.5786,124.4956,-0.0013904,-0.00079119,0.0,0 STARLINK-5524,1 56474U 23064AC  23240.11422531 -.00079119  00000-0 -13904-2 0  9999,2 56474  69.9987 298.5612 0004696 235.5786 124.4956 15.50544617 17524,6793.272,92.871,418.327,411.947,0.0
56474.0,STARLINK-5524,PAYLOAD,2023-08-28 10:29:40,15.49907181,0.0002181,69.9999,297.6799,261.3475,98.7464,-0.0023635,-0.00130483,0.0,0 STARLINK-5524,1 56474U 23064AC  23240.43727486 -.00130483  00000-0 -23635-2 0  9995,2 56474  69.9999 297.6799 0002181 261.3475  98.7464 15.49907181 17571,6795.134,92.909,418.481,415.517,0.0
56474.0,STARLINK-5524,PAYLOAD,2023-08-28 22:00:00,15.47983157,0.0003294,69.9998,296.3708,267.4505,247.0108,-0.018704,-0.00903116,0.0,0 STARLINK-5524,1 56474U 23064AC  23240.91667824 -.00903116  00000-0 -18704-1 0  9998,2 56474  69.9998 296.3708 0003294 267.4505 247.0108 15.47983157 17651,6800.764,93.024,424.869,420.389,0.0
56474.0,STARLINK-5524,PAYLOAD,2023-08-29 22:00:00,15.46025286,0.000339,69.9994,293.6541,265.5072,56.5511,-0.020016,-0.00902989,0.0,0 STARLINK-5524,1 56474U 23064AC  23241.91667824 -.00902989  00000-0 -20016-1 0  9995,2 56474  69.9994 293.6541 0003390 265.5072  56.5511 15.46025286 17804,6806.504,93.142,430.677,426.062,0.0
56474.0,STARLINK-5524,PAYLOAD,2023-08-30 22:00:00,15.44062887,0.000333,69.9989,290.9455,268.4316,214.1837,-0.021137,-0.00892447,0.0,0 STARLINK-5524,1 56474U 23064AC  23242.91667824 -.00892447  00000-0 -21137-1 0  9998,2 56474  69.9989 290.9455 0003330 268.4316 214.1837 15.44062887 17965,6812.27,93.26,436.403,431.866,0.0
56474.0,STARLINK-5524,PAYLOAD,2023-08-31 14:00:01,15.42763226,0.0003324,69.9985,289.1441,271.9763,313.7612,-0.021965,-0.00887866,0.0,0 STARLINK-5524,1 56474U 23064AC  23243.58334491 -.00887866  00000-0 -21965-1 0  9991,2 56474  69.9985 289.1441 0003324 271.9763 313.7612 15.42763226 18066,6816.095,93.339,440.226,435.695,0.0
56474.0,STARLINK-5524,PAYLOAD,2023-08-31 22:00:01,15.42103159,0.0003381,69.9985,288.2445,266.3698,9.8246,-0.022457,-0.00887844,0.0,0 STARLINK-5524,1 56474U 23064AC  23243.91668981 -.00887844  00000-0 -22457-1 0  9995,2 56474  69.9985 288.2445 0003381 266.3698   9.8246 15.42103159  5861,6818.04,93.379,442.21,437.6,0.0
56474.0,STARLINK-5524,PAYLOAD,2023-09-01 04:00:00,15.41646575,0.0003259,69.9987,287.5707,264.5102,318.8801,-0.023622,-0.00917169,0.0,0 STARLINK-5524,1 56474U 23064AC  23244.16667824 -.00917169  00000-0 -23622-1 0  9997,2 56474  69.9987 287.5707 0003259 264.5102 318.8801 15.41646575 18159,6819.386,93.407,443.474,439.029,0.0
56474.0,STARLINK-5524,PAYLOAD,2023-09-01 14:00:01,15.40807959,0.0003439,69.9983,286.4483,272.8877,101.6699,-0.023489,-0.00889226,0.0,0 STARLINK-5524,1 56474U 23064AC  23244.58334491 -.00889226  00000-0 -23489-1 0  9997,2 56474  69.9983 286.4483 0003439 272.8877 101.6699 15.40807959  5978,6821.86,93.457,446.072,441.379,0.0
56474.0,STARLINK-5524,PAYLOAD,2023-09-01 22:00:00,15.40137487,0.0003398,69.9982,285.5514,267.548,155.059,-0.023533,-0.00872639,0.0,0 STARLINK-5524,1 56474U 23064AC  23244.91667824 -.00872639  00000-0 -23533-1 0  9993,2 56474  69.9982 285.5514 0003398 267.5480 155.0590 15.40137487 18279,6823.84,93.498,448.024,443.386,0.0
56474.0,STARLINK-5524,PAYLOAD,2023-09-02 14:00:01,15.388542,0.000321,69.9982,283.7605,272.7844,243.5524,-0.025181,-0.00893287,0.0,0 STARLINK-5524,1 56474U 23064AC  23245.58334491 -.00893287  00000-0 -25181-1 0  9991,2 56474  69.9982 283.7605 0003210 272.7844 243.5524 15.38854200 18372,6827.633,93.576,451.69,447.307,0.0
56474.0,STARLINK-5524,PAYLOAD,2023-09-02 22:00:00,15.38181539,0.0003165,69.9981,282.8665,263.0569,298.9815,-0.025045,-0.00870931,0.0,0 STARLINK-5524,1 56474U 23064AC  23245.91667824 -.00870931  00000-0 -25045-1 0  9997,2 56474  69.9981 282.8665 0003165 263.0569 298.9815 15.38181539  6027,6829.624,93.617,453.65,449.327,0.0
56474.0,STARLINK-5524,PAYLOAD,2023-09-03 04:00:00,15.37742973,0.0003178,69.9984,282.1967,263.666,242.1088,-0.027434,-0.00934782,0.0,0 STARLINK-5524,1 56474U 23064AC  23246.16667824 -.00934782  00000-0 -27434-1 0  9994,2 56474  69.9984 282.1967 0003178 263.6660 242.1088 15.37742973 18468,6830.922,93.644,454.958,450.616,0.0
56474.0,STARLINK-5524,PAYLOAD,2023-09-03 14:00:01,15.36906102,0.0003342,69.9979,281.0812,268.2854,22.7878,-0.027274,-0.0090684,0.0,0 STARLINK-5524,1 56474U 23064AC  23246.58334491 -.00906840  00000-0 -27274-1 0  9997,2 56474  69.9979 281.0812 0003342 268.2854  22.7878 15.36906102  5974,6833.402,93.695,457.55,452.983,0.0
56474.0,STARLINK-5524,PAYLOAD,2023-09-04 14:00:01,15.34949117,0.0003374,69.998,278.4097,271.8064,146.9663,-0.029055,-0.00907041,0.0,0 STARLINK-5524,1 56474U 23064AC  23247.58334491 -.00907041  00000-0 -29055-1 0  9991,2 56474  69.9980 278.4097 0003374 271.8064 146.9663 15.34949117 18683,6839.209,93.814,463.381,458.766,0.0
56474.0,STARLINK-5524,PAYLOAD,2023-09-05 04:00:00,15.33835381,0.0003468,69.9988,276.8551,265.1936,134.8068,-0.03157,-0.00947507,0.0,0 STARLINK-5524,1 56474U 23064AC  23248.16667824 -.00947507  00000-0 -31570-1 0  9991,2 56474  69.9988 276.8551 0003468 265.1936 134.8068 15.33835381 18777,6842.519,93.882,466.757,462.011,0.0
56474.0,STARLINK-5524,PAYLOAD,2023-09-05 14:00:01,15.32988626,0.0003319,69.9984,275.7462,270.2491,269.184,-0.030807,-0.00903866,0.0,0 STARLINK-5524,1 56474U 23064AC  23248.58334491 -.00903866  00000-0 -30807-1 0  9990,2 56474  69.9984 275.7462 0003319 270.2491 269.1840 15.32988626  5978,6845.038,93.934,469.175,464.631,0.0
56474.0,STARLINK-5524,PAYLOAD,2023-09-06 04:00:00,15.31874692,0.0003322,69.9989,274.1961,264.3711,252.1826,-0.033374,-0.00941961,0.0,0 STARLINK-5524,1 56474U 23064AC  23249.16667824 -.00941961  00000-0 -33374-1 0  9994,2 56474  69.9989 274.1961 0003322 264.3711 252.1826 15.31874692 18924,6848.356,94.002,472.496,467.946,0.0
56474.0,STARLINK-5524,PAYLOAD,2023-09-06 14:00:01,15.31038091,0.0003421,69.9985,273.0905,267.9427,25.1066,-0.033152,-0.00913996,0.0,0 STARLINK-5524,1 56474U 23064AC  23249.58334491 -.00913996  00000-0 -33152-1 0  9992,2 56474  69.9985 273.0905 0003421 267.9427  25.1066 15.31038091  5979,6850.851,94.054,475.059,470.372,0.0
56474.0,STARLINK-5524,PAYLOAD,2023-09-06 22:00:00,15.30346135,0.0003464,69.9986,272.2071,261.849,67.5199,-0.031395,-0.00852172,0.0,0 STARLINK-5524,1 56474U 23064AC  23249.91667824 -.00852172  00000-0 -31395-1 0  9993,2 56474  69.9986 272.2071 0003464 261.8490  67.5199 15.30346135  6029,6852.916,94.096,477.155,472.407,0.0
56474.0,STARLINK-5524,PAYLOAD,2023-09-07 06:00:00,15.29748975,0.0003441,69.9989,271.3245,265.0152,99.8643,-0.035687,-0.00954625,0.0,0 STARLINK-5524,1 56474U 23064AC  23250.25001157 -.00954625  00000-0 -35687-1 0  9997,2 56474  69.9989 271.3245 0003441 265.0152  99.8643 15.29748975 19089,6854.699,94.133,478.923,474.205,0.0
56474.0,STARLINK-5524,PAYLOAD,2023-09-07 14:00:01,15.29087257,0.0003386,69.9985,270.4428,269.8391,129.7854,-0.035551,-0.00921847,0.0,0 STARLINK-5524,1 56474U 23064AC  23250.58334491 -.00921847  00000-0 -35551-1 0  9993,2 56474  69.9985 270.4428 0003386 269.8391 129.7854 15.29087257  6029,6856.677,94.174,480.863,476.22,0.0
56474.0,STARLINK-5524,PAYLOAD,2023-09-07 22:00:00,15.28389557,0.0003353,69.9985,269.5621,263.1054,170.4943,-0.033401,-0.00853337,0.0,0 STARLINK-5524,1 56474U 23064AC  23250.91667824 -.00853337  00000-0 -33401-1 0  9999,2 56474  69.9985 269.5621 0003353 263.1054 170.4943 15.28389557  6074,6858.763,94.217,482.928,478.328,0.0
56474.0,STARLINK-5524,PAYLOAD,2023-09-08 04:00:00,15.2796359,0.0003435,69.9988,268.902,263.5529,104.9821,-0.037948,-0.00960375,0.0,0 STARLINK-5524,1 56474U 23064AC  23251.16667824 -.00960375  00000-0 -37948-1 0  9998,2 56474  69.9988 268.9020 0003435 263.5529 104.9821 15.27963590 19227,6860.038,94.243,484.259,479.546,0.0
56474.0,STARLINK-5524,PAYLOAD,2023-09-08 14:00:01,15.27136545,0.0003168,69.9983,267.8031,269.8278,229.3316,-0.038193,-0.00943703,0.0,0 STARLINK-5524,1 56474U 23064AC  23251.58334491 -.00943703  00000-0 -38193-1 0  9994,2 56474  69.9983 267.8031 0003168 269.8278 229.3316 15.27136545  6022,6862.514,94.294,486.553,482.205,0.0
56474.0,STARLINK-5524,PAYLOAD,2023-09-08 22:00:00,15.26433209,0.000319,69.9983,266.9251,262.1922,268.597,-0.035403,-0.00852128,0.0,0 STARLINK-5524,1 56474U 23064AC  23251.91667824 -.00852128  00000-0 -35403-1 0  9991,2 56474  69.9983 266.9251 0003190 262.1922 268.5970 15.26433209 19349,6864.622,94.338,488.677,484.297,0.0
56474.0,STARLINK-5524,PAYLOAD,2023-09-09 14:00:01,15.25184476,0.000316,69.9979,265.1714,267.5745,324.0803,-0.040988,-0.0095384,0.0,0 STARLINK-5524,1 56474U 23064AC  23252.58334491 -.00953840  00000-0 -40988-1 0  9993,2 56474  69.9979 265.1714 0003160 267.5745 324.0803 15.25184476 19440,6868.369,94.415,492.404,488.063,0.0
56474.0,STARLINK-5524,PAYLOAD,2023-09-10 06:00:00,15.23865559,0.0003284,69.9979,263.4213,264.7453,24.6683,-0.041655,-0.00933381,0.0,0 STARLINK-5524,1 56474U 23064AC  23253.25001157 -.00933381  00000-0 -41655-1 0  9998,2 56474  69.9979 263.4213 0003284 264.7453  24.6683 15.23865559 19543,6872.331,94.497,496.453,491.939,0.0
56474.0,STARLINK-5524,PAYLOAD,2023-09-10 14:00:01,15.23229133,0.0003271,69.9975,262.5473,268.3428,48.7678,-0.043639,-0.00957537,0.0,0 STARLINK-5524,1 56474U 23064AC  23253.58334491 -.00957537  00000-0 -43639-1 0  9997,2 56474  69.9975 262.5473 0003271 268.3428  48.7678 15.23229133  6016,6874.245,94.536,498.359,493.862,0.0
56474.0,STARLINK-5524,PAYLOAD,2023-09-11 14:00:01,15.21271856,0.0003266,69.9972,259.9312,270.6414,124.885,-0.046232,-0.00957366,0.0,0 STARLINK-5524,1 56474U 23064AC  23254.58334491 -.00957366  00000-0 -46232-1 0  9990,2 56474  69.9972 259.9312 0003266 270.6414 124.8850 15.21271856 19750,6880.14,94.658,504.252,499.758,0.0
